{
    "links": {
        "self": "http://www.neowsapp.com/rest/v1/neo/3608624?api_key=iIulBulltgU6a56xZRHN4H3l9WmuAYTsLGpBGhQ2"
    },
    "id": "3608624",
    "neo_reference_id": "3608624",
    "name": "(2012 RN15)",
    "designation": "2012 RN15",
    "nasa_jpl_url": "http://ssd.jpl.nasa.gov/sbdb.cgi?sstr=3608624",
    "absolute_magnitude_h": 24.5,
    "estimated_diameter": {
        "kilometers": {
            "estimated_diameter_min": 0.0334622374,
            "estimated_diameter_max": 0.0748238376
        },
        "meters": {
            "estimated_diameter_min": 33.4622374455,
            "estimated_diameter_max": 74.8238376074
        },
        "miles": {
            "estimated_diameter_min": 0.0207924639,
            "estimated_diameter_max": 0.0464933628
        },
        "feet": {
            "estimated_diameter_min": 109.7842471007,
            "estimated_diameter_max": 245.4850393757
        }
    },
    "is_potentially_hazardous_asteroid": false,
    "close_approach_data": [
        {
            "close_approach_date": "2010-05-15",
            "close_approach_date_full": "2010-May-15 11:24",
            "epoch_date_close_approach": 1273922640000,
            "relative_velocity": {
                "kilometers_per_second": "11.3216424542",
                "kilometers_per_hour": "40757.9128352971",
                "miles_per_hour": "25325.38200591"
            },
            "miss_distance": {
                "astronomical": "0.0466423139",
                "lunar": "18.1438601071",
                "kilometers": "6977590.811311393",
                "miles": "4335673.8822795034"
            },
            "orbiting_body": "Mars"
        },
        {
            "close_approach_date": "2012-09-13",
            "close_approach_date_full": "2012-Sep-13 23:04",
            "epoch_date_close_approach": 1347577440000,
            "relative_velocity": {
                "kilometers_per_second": "16.0441062042",
                "kilometers_per_hour": "57758.782335233",
                "miles_per_hour": "35889.0611682452"
            },
            "miss_distance": {
                "astronomical": "0.0486885641",
                "lunar": "18.9398514349",
                "kilometers": "7283705.482718467",
                "miles": "4525884.7188981646"
            },
            "orbiting_body": "Earth"
        }
    ],
    "orbital_data": {
        "orbit_id": "7",
        "orbit_determination_date": "2017-04-06 08:49:00",
        "first_observation_date": "2012-09-14",
        "last_observation_date": "2012-09-20",
        "data_arc_in_days": 6,
        "observations_used": 52,
        "orbit_uncertainty": "8",
        "minimum_orbit_intersection": ".0461384",
        "jupiter_tisserand_invariant": "4.616",
        "epoch_osculation": "2456186.5",
        "eccentricity": ".2542575656150193",
        "semi_major_axis": "1.389607282560523",
        "inclination": "29.27006655875378",
        "ascending_node_longitude": "172.8427991954331",
        "orbital_period": "598.3241728144327",
        "perihelion_distance": "1.036289117735782",
        "perihelion_argument": "157.5308118298164",
        "aphelion_distance": "1.742925447385263",
        "perihelion_time": "2456163.418034243414",
        "mean_anomaly": "13.88796918112836",
        "mean_motion": ".6016805209567426",
        "equinox": "J2000",
        "orbit_class": {
            "orbit_class_type": "AMO",
            "orbit_class_description": "Near-Earth asteroid orbits similar to that of 1221 Amor",
            "orbit_class_range": "1.017 AU < q (perihelion) < 1.3 AU"
        }
    },
    "is_sentry_object": false
}